[{"OBJECT_NAME":"SEAHAWK-1","OBJECT_ID":"2018-099BQ","EPOCH":"2026-03-09T17:26:19.455648","MEAN_MOTION":15.21024633,"ECCENTRICITY":0.00069788,"INCLINATION":97.4094,"RA_OF_ASC_NODE":122.7887,"ARG_OF_PERICENTER":302.9769,"MEAN_ANOMALY":57.0796,"EPHEMERIS_TYPE":0,"CLASSIFICATION_TYPE":"U","NORAD_CAT_ID":43820,"ELEMENT_SET_NO":999,"REV_AT_EPOCH":39740,"BSTAR":0.00046242233,"MEAN_MOTION_DOT":0.00010205,"MEAN_MOTION_DDOT":0},{"OBJECT_NAME":"BUZZER-1","OBJECT_ID":"2025-009A","EPOCH":"2026-03-09T17:24:25.753248","MEAN_MOTION":15.20823037,"ECCENTRICITY":0.00067423,"INCLINATION":97.3973,"RA_OF_ASC_NODE":148.7619,"ARG_OF_PERICENTER":334.5264,"MEAN_ANOMALY":25.5639,"EPHEMERIS_TYPE":0,"CLASSIFICATION_TYPE":"U","NORAD_CAT_ID":62609,"ELEMENT_SET_NO":999,"REV_AT_EPOCH":6357,"BSTAR":0.00037809783,"MEAN_MOTION_DOT":8.28e-5,"MEAN_MOTION_DDOT":0}]
